CTC1_L_00169016-03
1 10062U 25474CA  26075.70031250  .00000000  00000+0  00000-0 0  9998
2 10062 100.0000 180.0000 0000000   0.0000   0.0000 13.98210060    12
CTC1_L_00169016-04
1 10063U 24835AZ  26075.70031250  .00000000  00000+0  00000-0 0  9999
2 10063 100.0000 180.0000 0000000   0.0000  90.0000 13.98210060    12
CTC1_L_00169017-01
1 10064U 22314S   26075.70031250  .00000000  00000+0  00000-0 0  9990
2 10064 100.0000 192.0000 0000000   0.0000 192.0000 13.98210060    19
CTC1_L_00169017-02
1 10065U 23674RJ  26075.70031250  .00000000  00000+0  00000-0 0  9991
2 10065 100.0000 192.0000 0000000   0.0000 282.0000 13.98210060    10
CTC1_L_00169017-03
1 10066U 26458FW  26075.70031250  .00000000  00000+0  00000-0 0  9995
2 10066 100.0000 192.0000 0000000   0.0000  12.0000 13.98210060    12
CTC1_L_00169017-04
1 10067U 24882TY  26075.70031250  .00000000  00000+0  00000-0 0  9995
2 10067 100.0000 192.0000 0000000   0.0000 102.0000 13.98210060    13
CTC1_L_00169018-01
1 10068U 24299UW  26075.70031250  .00000000  00000+0  00000-0 0  9998
2 10068 100.0000 204.0000 0000000   0.0000 204.0000 13.98210060    11
CTC1_L_00169018-02
1 10069U 24514QX  26075.70031250  .00000000  00000+0  00000-0 0  9999
2 10069 100.0000 204.0000 0000000   0.0000 294.0000 13.98210060    11
CTC1_L_00169018-03
1 10070U 22175L   26075.70031250  .00000000  00000+0  00000-0 0  9992
2 10070 100.0000 204.0000 0000000   0.0000  24.0000 13.98210060    14
CTC1_L_00169018-04
1 10071U 23384CZ  26075.70031250  .00000000  00000+0  00000-0 0  9996
2 10071 100.0000 204.0000 0000000   0.0000 114.0000 13.98210060    15
CTC1_L_00169019-01
1 10072U 25526FG  26075.70031250  .00000000  00000+0  00000-0 0  9997
2 10072 100.0000 216.0000 0000000   0.0000 216.0000 13.98210060    12
CTC1_L_00169019-02
1 10073U 26599UX  26075.70031250  .00000000  00000+0  00000-0 0  9999
2 10073 100.0000 216.0000 0000000   0.0000 306.0000 13.98210060    13
CTC1_L_00169019-03
1 10074U 22234NN  26075.70031250  .00000000  00000+0  00000-0 0  9992
2 10074 100.0000 216.0000 0000000   0.0000  36.0000 13.98210060    14
CTC1_L_00169019-04
1 10075U 24772ZK  26075.70031250  .00000000  00000+0  00000-0 0  9992
2 10075 100.0000 216.0000 0000000   0.0000 126.0000 13.98210060    15
CTC1_L_00169020-01
1 10076U 22316HF  26075.70031250  .00000000  00000+0  00000-0 0  9995
2 10076 100.0000 228.0000 0000000   0.0000 228.0000 13.98210060    12
CTC1_L_00169020-02
1 10077U 25254OH  26075.70031250  .00000000  00000+0  00000-0 0  9990
2 10077 100.0000 228.0000 0000000   0.0000 318.0000 13.98210060    13
CTC1_L_00169020-03
1 10078U 23924MV  26075.70031250  .00000000  00000+0  00000-0 0  9993
2 10078 100.0000 228.0000 0000000   0.0000  48.0000 13.98210060    14
CTC1_L_00169020-04
1 10079U 22878H   26075.70031250  .00000000  00000+0  00000-0 0  9991
2 10079 100.0000 228.0000 0000000   0.0000 138.0000 13.98210060    15
CTC1_L_00169021-01
1 10080U 26128OA  26075.70031250  .00000000  00000+0  00000-0 0  9995
2 10080 100.0000 240.0000 0000000   0.0000 240.0000 13.98210060    15
CTC1_L_00169021-02
1 10081U 22808NV  26075.70031250  .00000000  00000+0  00000-0 0  9997
2 10081 100.0000 240.0000 0000000   0.0000 330.0000 13.98210060    16
CTC1_L_00169021-03
1 10082U 23736FK  26075.70031250  .00000000  00000+0  00000-0 0  9999
2 10082 100.0000 240.0000 0000000   0.0000  60.0000 13.98210060    17
CTC1_L_00169021-04
1 10083U 25003FT  26075.70031250  .00000000  00000+0  00000-0 0  9999
2 10083 100.0000 240.0000 0000000   0.0000 150.0000 13.98210060    18
CTC1_L_00169022-01
1 10084U 24843HP  26075.70031250  .00000000  00000+0  00000-0 0  9991
2 10084 100.0000 252.0000 0000000   0.0000 252.0000 13.98210060    15
CTC1_L_00169022-02
1 10085U 25705JM  26075.70031250  .00000000  00000+0  00000-0 0  9990
2 10085 100.0000 252.0000 0000000   0.0000 342.0000 13.98210060    16
CTC1_L_00169022-03
1 10086U 26128IL  26075.70031250  .00000000  00000+0  00000-0 0  9991
2 10086 100.0000 252.0000 0000000   0.0000  72.0000 13.98210060    17
CTC1_L_00169022-04
1 10087U 25551GN  26075.70031250  .00000000  00000+0  00000-0 0  9991
2 10087 100.0000 252.0000 0000000   0.0000 162.0000 13.98210060    18
CTC1_L_00169023-01
1 10088U 24085KQ  26075.70031250  .00000000  00000+0  00000-0 0  9993
2 10088 100.0000 264.0000 0000000   0.0000 264.0000 13.98210060    15
CTC1_L_00169023-02
1 10089U 22023VM  26075.70031250  .00000000  00000+0  00000-0 0  9994
2 10089 100.0000 264.0000 0000000   0.0000 354.0000 13.98210060    16
CTC1_L_00169023-03
1 10090U 23836SA  26075.70031250  .00000000  00000+0  00000-0 0  9999
2 10090 100.0000 264.0000 0000000   0.0000  84.0000 13.98210060    18
CTC1_L_00169023-04
1 10091U 23198FX  26075.70031250  .00000000  00000+0  00000-0 0  9991
2 10091 100.0000 264.0000 0000000   0.0000 174.0000 13.98210060    19
CTC1_L_00169024-01
1 10092U 25116YJ  26075.70031250  .00000000  00000+0  00000-0 0  9994
2 10092 100.0000 276.0000 0000000   0.0000 276.0000 13.98210060    16
CTC1_L_00169024-02
1 10093U 24736KU  26075.70031250  .00000000  00000+0  00000-0 0  9992
2 10093 100.0000 276.0000 0000000   0.0000   6.0000 13.98210060    18
CTC1_L_00169024-03
1 10094U 26073JZ  26075.70031250  .00000000  00000+0  00000-0 0  9999
2 10094 100.0000 276.0000 0000000   0.0000  96.0000 13.98210060    18
CTC1_L_00169024-04
1 10095U 26659LH  26075.70031250  .00000000  00000+0  00000-0 0  9990
2 10095 100.0000 276.0000 0000000   0.0000 186.0000 13.98210060    19
CTC1_L_00169025-01
1 10096U 25752EH  26075.70031250  .00000000  00000+0  00000-0 0  9994
2 10096 100.0000 288.0000 0000000   0.0000 288.0000 13.98210060    16
CTC1_L_00169025-02
1 10097U 24454UO  26075.70031250  .00000000  00000+0  00000-0 0  9993
2 10097 100.0000 288.0000 0000000   0.0000  18.0000 13.98210060    18
CTC1_L_00169025-03
1 10098U 22378ND  26075.70031250  .00000000  00000+0  00000-0 0  9997
2 10098 100.0000 288.0000 0000000   0.0000 108.0000 13.98210060    19
CTC1_L_00169025-04
1 10099U 25955QV  26075.70031250  .00000000  00000+0  00000-0 0  9992
2 10099 100.0000 288.0000 0000000   0.0000 198.0000 13.98210060    19
CTC1_L_00169026-01
1 10100U 22361II  26075.70031250  .00000000  00000+0  00000-0 0  9993
2 10100 100.0000 300.0000 0000000   0.0000 300.0000 13.98210060    12
CTC1_L_00169026-02
1 10101U 23269WU  26075.70031250  .00000000  00000+0  00000-0 0  9992
2 10101 100.0000 300.0000 0000000   0.0000  30.0000 13.98210060    13
CTC1_L_00169026-03
1 10102U 22868AW  26075.70031250  .00000000  00000+0  00000-0 0  9997
2 10102 100.0000 300.0000 0000000   0.0000 120.0000 13.98210060    14
CTC1_L_00169026-04
1 10103U 23445OJ  26075.70031250  .00000000  00000+0  00000-0 0  9990
2 10103 100.0000 300.0000 0000000   0.0000 210.0000 13.98210060    15
CTC1_L_00169027-01
1 10104U 25342MW  26075.70031250  .00000000  00000+0  00000-0 0  9999
2 10104 100.0000 312.0000 0000000   0.0000 312.0000 13.98210060    12
CTC1_L_00169027-02
1 10105U 26498DF  26075.70031250  .00000000  00000+0  00000-0 0  9993
2 10105 100.0000 312.0000 0000000   0.0000  42.0000 13.98210060    13
CTC1_L_00169027-03
1 10106U 26439UM  26075.70031250  .00000000  00000+0  00000-0 0  9999
2 10106 100.0000 312.0000 0000000   0.0000 132.0000 13.98210060    14
CTC1_L_00169027-04
1 10107U 24054BT  26075.70031250  .00000000  00000+0  00000-0 0  9991
2 10107 100.0000 312.0000 0000000   0.0000 222.0000 13.98210060    15
CTC1_L_00169028-01
1 10108U 25943TM  26075.70031250  .00000000  00000+0  00000-0 0  9990
2 10108 100.0000 324.0000 0000000   0.0000 324.0000 13.98210060    12
CTC1_L_00169028-02
1 10109U 24367FT  26075.70031250  .00000000  00000+0  00000-0 0  9990
2 10109 100.0000 324.0000 0000000   0.0000  54.0000 13.98210060    13
CTC1_L_00169028-03
1 10110U 23298D   26075.70031250  .00000000  00000+0  00000-0 0  9994
2 10110 100.0000 324.0000 0000000   0.0000 144.0000 13.98210060    15
CTC1_L_00169028-04
1 10111U 26940QL  26075.70031250  .00000000  00000+0  00000-0 0  9992
2 10111 100.0000 324.0000 0000000   0.0000 234.0000 13.98210060    16
CTC1_L_00169029-01
1 10112U 24704ZG  26075.70031250  .00000000  00000+0  00000-0 0  9999
2 10112 100.0000 336.0000 0000000   0.0000 336.0000 13.98210060    13
CTC1_L_00169029-02
1 10113U 26285RR  26075.70031250  .00000000  00000+0  00000-0 0  9996
2 10113 100.0000 336.0000 0000000   0.0000  66.0000 13.98210060    14
CTC1_L_00169029-03
1 10114U 26275PU  26075.70031250  .00000000  00000+0  00000-0 0  9996
2 10114 100.0000 336.0000 0000000   0.0000 156.0000 13.98210060    15
CTC1_L_00169029-04
1 10115U 23020KG  26075.70031250  .00000000  00000+0  00000-0 0  9992
2 10115 100.0000 336.0000 0000000   0.0000 246.0000 13.98210060    16
CTC1_L_00169030-01
1 10116U 22668UF  26075.70031250  .00000000  00000+0  00000-0 0  9990
2 10116 100.0000 348.0000 0000000   0.0000 348.0000 13.98210060    13
CTC1_L_00169030-02
1 10117U 23223BH  26075.70031250  .00000000  00000+0  00000-0 0  9999
2 10117 100.0000 348.0000 0000000   0.0000  78.0000 13.98210060    14
CTC1_L_00169030-03
1 10118U 24312QZ  26075.70031250  .00000000  00000+0  00000-0 0  9990
2 10118 100.0000 348.0000 0000000   0.0000 168.0000 13.98210060    15
CTC1_L_00169030-04
1 10119U 26986WR  26075.70031250  .00000000  00000+0  00000-0 0  9990
2 10119 100.0000 348.0000 0000000   0.0000 258.0000 13.98210060    16
